{"type": "FeatureCollection", "features": [ {"type": "Feature", "properties": {"norad_id": 33867, "name": "IRIDIUM 33 DEB", "group": "iridium-33-debris", "lat": -45.86637326443616, "lon": 175.5881912358721, "alt_km": 396.1364149767951, "timestamp": "2025-12-09T09:46:48.030407+00:00", "meta": {"OBJECT_NAME": "IRIDIUM 33 DEB", "OBJECT_ID": "1997-051AL", "EPOCH": "2025-12-09T01:07:32.630880", "MEAN_MOTION": 15.61194755, "ECCENTRICITY": 0.0013073, "INCLINATION": 86.3629, "RA_OF_ASC_NODE": 352.0144, "ARG_OF_PERICENTER": 91.4766, "MEAN_ANOMALY": 268.7997, "EPHEMERIS_TYPE": 0, "CLASSIFICATION_TYPE": "U", "NORAD_CAT_ID": 33867, "ELEMENT_SET_NO": 999, "REV_AT_EPOCH": 89453, "BSTAR": 0.0073525, "MEAN_MOTION_DOT": 0.00674938, "MEAN_MOTION_DDOT": 0}, "tle": {"line1": "1 33867U 97051AL  25343.04690545  .00674938  00000+0  73525-2 0  9999", "line2": "2 33867  86.3629 352.0144 0013073  91.4766 268.7997 15.61194755894530"}}, "geometry": {"type": "Point", "coordinates": [175.5881912358721, -45.86637326443616]}}, {"type": "Feature", "properties": {"norad_id": 33870, "name": "IRIDIUM 33 DEB", "group": "iridium-33-debris", "lat": -85.16415830738323, "lon": 11.15231824858246, "alt_km": 745.2168362433213, "timestamp": "2025-12-09T09:46:48.030418+00:00", "meta": {"OBJECT_NAME": "IRIDIUM 33 DEB", "OBJECT_ID": "1997-051AP", "EPOCH": "2025-12-08T23:22:35.143104", "MEAN_MOTION": 14.45818414, "ECCENTRICITY": 0.0021059, "INCLINATION": 86.3747, "RA_OF_ASC_NODE": 59.8748, "ARG_OF_PERICENTER": 190.5386, "MEAN_ANOMALY": 347.6141, "EPHEMERIS_TYPE": 0, "CLASSIFICATION_TYPE": "U", "NORAD_CAT_ID": 33870, "ELEMENT_SET_NO": 999, "REV_AT_EPOCH": 88082, "BSTAR": 0.0010489, "MEAN_MOTION_DOT": 3.75e-05, "MEAN_MOTION_DDOT": 0}, "tle": {"line1": "1 33870U 97051AP  25342.97401786  .00003750  00000+0  10489-2 0  9999", "line2": "2 33870  86.3747  59.8748 0021059 190.5386 347.6141 14.45818414880820"}}, "geometry": {"type": "Point", "coordinates": [11.15231824858246, -85.16415830738323]}}, {"type": "Feature", "properties": {"norad_id": 33881, "name": "IRIDIUM 33 DEB", "group": "iridium-33-debris", "lat": 12.968942038029171, "lon": 109.02416399625375, "alt_km": 748.9524943840106, "timestamp": "2025-12-09T09:46:48.030430+00:00", "meta": {"OBJECT_NAME": "IRIDIUM 33 DEB", "OBJECT_ID": "1997-051BA", "EPOCH": "2025-12-08T21:05:51.876096", "MEAN_MOTION": 14.5645843, "ECCENTRICITY": 0.0061428, "INCLINATION": 86.3871, "RA_OF_ASC_NODE": 108.42, "ARG_OF_PERICENTER": 187.1593, "MEAN_ANOMALY": 297.143, "EPHEMERIS_TYPE": 0, "CLASSIFICATION_TYPE": "U", "NORAD_CAT_ID": 33881, "ELEMENT_SET_NO": 999, "REV_AT_EPOCH": 87444, "BSTAR": 0.002467, "MEAN_MOTION_DOT": 0.00011273, "MEAN_MOTION_DDOT": 0}, "tle": {"line1": "1 33881U 97051BA  25342.87907264  .00011273  00000+0  24670-2 0  9998", "line2": "2 33881  86.3871 108.4200 0061428 187.1593 297.1430 14.56458430874441"}}, "geometry": {"type": "Point", "coordinates": [109.02416399625375, 12.968942038029171]}}, {"type": "Feature", "properties": {"norad_id": 33884, "name": "IRIDIUM 33 DEB", "group": "iridium-33-debris", "lat": 69.86764431554529, "lon": 21.296519127055006, "alt_km": 631.5670066311222, "timestamp": "2025-12-09T09:46:48.030441+00:00", "meta": {"OBJECT_NAME": "IRIDIUM 33 DEB", "OBJECT_ID": "1997-051BD", "EPOCH": "2025-12-09T01:28:11.764128", "MEAN_MOTION": 14.77315007, "ECCENTRICITY": 0.0010092, "INCLINATION": 86.3693, "RA_OF_ASC_NODE": 11.4785, "ARG_OF_PERICENTER": 337.7014, "MEAN_ANOMALY": 52.1212, "EPHEMERIS_TYPE": 0, "CLASSIFICATION_TYPE": "U", "NORAD_CAT_ID": 33884, "ELEMENT_SET_NO": 999, "REV_AT_EPOCH": 88793, "BSTAR": 0.0015599, "MEAN_MOTION_DOT": 0.00011112, "MEAN_MOTION_DDOT": 0}, "tle": {"line1": "1 33884U 97051BD  25343.06124727  .00011112  00000+0  15599-2 0  9990", "line2": "2 33884  86.3693  11.4785 0010092 337.7014  52.1212 14.77315007887939"}}, "geometry": {"type": "Point", "coordinates": [21.296519127055006, 69.86764431554529]}}, {"type": "Feature", "properties": {"norad_id": 33886, "name": "IRIDIUM 33 DEB", "group": "iridium-33-debris", "lat": 49.04509142817539, "lon": -115.54827017127914, "alt_km": 772.0793320190633, "timestamp": "2025-12-09T09:46:48.030452+00:00", "meta": {"OBJECT_NAME": "IRIDIUM 33 DEB", "OBJECT_ID": "1997-051BF", "EPOCH": "2025-12-09T04:26:46.394016", "MEAN_MOTION": 14.36044861, "ECCENTRICITY": 0.001213, "INCLINATION": 86.383, "RA_OF_ASC_NODE": 68.7247, "ARG_OF_PERICENTER": 255.409, "MEAN_ANOMALY": 167.2504, "EPHEMERIS_TYPE": 0, "CLASSIFICATION_TYPE": "U", "NORAD_CAT_ID": 33886, "ELEMENT_SET_NO": 999, "REV_AT_EPOCH": 88001, "BSTAR": 0.00031056, "MEAN_MOTION_DOT": 9.23e-06, "MEAN_MOTION_DDOT": 0}, "tle": {"line1": "1 33886U 97051BF  25343.18525919  .00000923  00000+0  31056-3 0  9998", "line2": "2 33886  86.3830  68.7247 0012130 255.4090 167.2504 14.36044861880013"}}, "geometry": {"type": "Point", "coordinates": [-115.54827017127914, 49.04509142817539]}}, {"type": "Feature", "properties": {"norad_id": 33887, "name": "IRIDIUM 33 DEB", "group": "iridium-33-debris", "lat": 52.886588140458116, "lon": 9.728124536454086, "alt_km": 765.7978998891613, "timestamp": "2025-12-09T09:46:48.030463+00:00", "meta": {"OBJECT_NAME": "IRIDIUM 33 DEB", "OBJECT_ID": "1997-051BG", "EPOCH": "2025-12-09T03:09:21.273408", "MEAN_MOTION": 14.37215839, "ECCENTRICITY": 0.0004187, "INCLINATION": 86.3047, "RA_OF_ASC_NODE": 4.9474, "ARG_OF_PERICENTER": 243.0697, "MEAN_ANOMALY": 182.8985, "EPHEMERIS_TYPE": 0, "CLASSIFICATION_TYPE": "U", "NORAD_CAT_ID": 33887, "ELEMENT_SET_NO": 999, "REV_AT_EPOCH": 88113, "BSTAR": 0.00021375, "MEAN_MOTION_DOT": 6.56e-06, "MEAN_MOTION_DDOT": 0}, "tle": {"line1": "1 33887U 97051BG  25343.13149622  .00000656  00000+0  21375-3 0  9993", "line2": "2 33887  86.3047   4.9474 0004187 243.0697 182.8985 14.37215839881133"}}, "geometry": {"type": "Point", "coordinates": [9.728124536454086, 52.886588140458116]}}, {"type": "Feature", "properties": {"norad_id": 33953, "name": "IRIDIUM 33 DEB", "group": "iridium-33-debris", "lat": 51.66490652477484, "lon": 59.812335038620816, "alt_km": 697.3718640847201, "timestamp": "2025-12-09T09:46:48.030473+00:00", "meta": {"OBJECT_NAME": "IRIDIUM 33 DEB", "OBJECT_ID": "1997-051BN", "EPOCH": "2025-12-08T15:57:49.131936", "MEAN_MOTION": 14.55261918, "ECCENTRICITY": 0.0018478, "INCLINATION": 86.3841, "RA_OF_ASC_NODE": 55.5477, "ARG_OF_PERICENTER": 115.1859, "MEAN_ANOMALY": 10.2465, "EPHEMERIS_TYPE": 0, "CLASSIFICATION_TYPE": "U", "NORAD_CAT_ID": 33953, "ELEMENT_SET_NO": 999, "REV_AT_EPOCH": 88244, "BSTAR": 0.0018443, "MEAN_MOTION_DOT": 8.026e-05, "MEAN_MOTION_DDOT": 0}, "tle": {"line1": "1 33953U 97051BN  25342.66515199  .00008026  00000+0  18443-2 0  9990", "line2": "2 33953  86.3841  55.5477 0018478 115.1859  10.2465 14.55261918882442"}}, "geometry": {"type": "Point", "coordinates": [59.812335038620816, 51.66490652477484]}}, {"type": "Feature", "properties": {"norad_id": 33960, "name": "IRIDIUM 33 DEB", "group": "iridium-33-debris", "lat": -39.9558148800388, "lon": 114.23179029164946, "alt_km": 625.1180695383073, "timestamp": "2025-12-09T09:46:48.030484+00:00", "meta": {"OBJECT_NAME": "IRIDIUM 33 DEB", "OBJECT_ID": "1997-051BV", "EPOCH": "2025-12-08T21:44:18.324960", "MEAN_MOTION": 14.8486698, "ECCENTRICITY": 0.00073075, "INCLINATION": 86.2537, "RA_OF_ASC_NODE": 291.3214, "ARG_OF_PERICENTER": 67.9979, "MEAN_ANOMALY": 351.6449, "EPHEMERIS_TYPE": 0, "CLASSIFICATION_TYPE": "U", "NORAD_CAT_ID": 33960, "ELEMENT_SET_NO": 999, "REV_AT_EPOCH": 88810, "BSTAR": 0.0037227683, "MEAN_MOTION_DOT": 0.00031788, "MEAN_MOTION_DDOT": 0}, "tle": {"line1": "1 33960U 97051BV  25342.90576765  .00031788  00000+0  37228-2 0  9994", "line2": "2 33960  86.2537 291.3214 0007307  67.9979 351.6449 14.84866980888101"}}, "geometry": {"type": "Point", "coordinates": [114.23179029164946, -39.9558148800388]}}, {"type": "Feature", "properties": {"norad_id": 33966, "name": "IRIDIUM 33 DEB", "group": "iridium-33-debris", "lat": -66.40021728902983, "lon": -124.23952115627719, "alt_km": 731.0000746329251, "timestamp": "2025-12-09T09:46:48.030496+00:00", "meta": {"OBJECT_NAME": "IRIDIUM 33 DEB", "OBJECT_ID": "1997-051CB", "EPOCH": "2025-12-08T16:37:01.548192", "MEAN_MOTION": 14.49569326, "ECCENTRICITY": 0.00069456, "INCLINATION": 86.3923, "RA_OF_ASC_NODE": 47.7641, "ARG_OF_PERICENTER": 202.0511, "MEAN_ANOMALY": 275.0616, "EPHEMERIS_TYPE": 0, "CLASSIFICATION_TYPE": "U", "NORAD_CAT_ID": 33966, "ELEMENT_SET_NO": 999, "REV_AT_EPOCH": 88383, "BSTAR": 0.00096318773, "MEAN_MOTION_DOT": 3.715e-05, "MEAN_MOTION_DDOT": 0}, "tle": {"line1": "1 33966U 97051CB  25342.69237903  .00003715  00000+0  96319-3 0  9990", "line2": "2 33966  86.3923  47.7641 0006945 202.0511 275.0616 14.49569326883830"}}, "geometry": {"type": "Point", "coordinates": [-124.23952115627719, -66.40021728902983]}}, {"type": "Feature", "properties": {"norad_id": 34071, "name": "IRIDIUM 33 DEB", "group": "iridium-33-debris", "lat": -45.51858631205553, "lon": 15.545350584225483, "alt_km": 740.934999908277, "timestamp": "2025-12-09T09:46:48.030506+00:00", "meta": {"OBJECT_NAME": "IRIDIUM 33 DEB", "OBJECT_ID": "1997-051CE", "EPOCH": "2025-12-09T03:21:46.783584", "MEAN_MOTION": 14.49438842, "ECCENTRICITY": 0.0009805, "INCLINATION": 86.3456, "RA_OF_ASC_NODE": 19.3928, "ARG_OF_PERICENTER": 117.2084, "MEAN_ANOMALY": 243.0121, "EPHEMERIS_TYPE": 0, "CLASSIFICATION_TYPE": "U", "NORAD_CAT_ID": 34071, "ELEMENT_SET_NO": 999, "REV_AT_EPOCH": 88282, "BSTAR": 0.00075639, "MEAN_MOTION_DOT": 2.915e-05, "MEAN_MOTION_DDOT": 0}, "tle": {"line1": "1 34071U 97051CE  25343.14012481  .00002915  00000+0  75639-3 0  9994", "line2": "2 34071  86.3456  19.3928 0009805 117.2084 243.0121 14.49438842882824"}}, "geometry": {"type": "Point", "coordinates": [15.545350584225483, -45.51858631205553]}}]}